CALSPHERE 1             
1 00900U 64063C   22335.54069073  .00000524  00000+0  54787-3 0  9991
2 00900  90.1838  44.0286 0025974 235.4129 231.3480 13.73987233893600
CALSPHERE 2             
1 00902U 64063E   22335.46563037  .00000048  00000+0  58652-4 0  9990
2 00902  90.1987  47.2253 0019187  28.7917 342.5958 13.52728858681358
LCS 1                   
1 01361U 65034C   22335.54012298  .00000011  00000+0  40267-3 0  9998
2 01361  32.1462   8.5743 0011354 110.2261 249.9458  9.89301966 81770
TEMPSAT 1               
1 01512U 65065E   22335.14012439  .00000025  00000+0  33086-4 0  9990
2 01512  89.9247 217.3521 0068259 282.9694 231.0586 13.33462555787588
CALSPHERE 4A            
1 01520U 65065H   22335.44462646  .00000104  00000+0  18195-3 0  9992
2 01520  89.9802 129.9753 0070010 151.6310 236.0189 13.35918818789951
OPS 5712 (P/L 160)      
1 02826U 67053A   22335.50136483  .00002573  00000+0  65878-3 0  9997
2 02826  69.9279 256.9629 0002352 160.7256 199.3967 14.51471155876964
OPS 5712 (P/L 153)      
1 02874U 67053H   22334.82284465  .00000016  00000+0  50266-4 0  9994
2 02874  69.9747   8.7858 0004432  66.3906 293.7664 13.96430298826057
SURCAL 150B             
1 02909U 67053J   22335.43622800  .00003794  00000+0  71179-3 0  9991
2 02909  69.9465 238.2255 0003308 215.8379 144.2541 14.65504578888063
RIGIDSPHERE 2 (LCS 4)   
1 05398U 71067E   22335.56690639  .00000476  00000+0  15931-3 0  9993
2 05398  87.6205 336.9042 0062505 192.0329 167.9380 14.34408332688217
COSMOS 2493 (SKRL-756 1)
1 39490U 13078A   22335.57383756  .00001606  00000+0  16405-3 0  9994
2 39490  82.4191  73.9746 0015632 261.2507  98.6940 14.89928921484575
COSMOS 2494 (SKRL-756 2)
1 39491U 13078B   22335.58606434  .00001797  00000+0  17687-3 0  9991
2 39491  82.4193  67.3740 0020347 234.5918 125.3402 14.91419365485164
